NORAD_CAT_ID,OBJECT_NAME,OBJECT_TYPE,EPOCH,MEAN_MOTION,ECCENTRICITY,INCLINATION,RA_OF_ASC_NODE,ARG_OF_PERICENTER,MEAN_ANOMALY,BSTAR,MEAN_MOTION_DOT,MEAN_MOTION_DDOT,TLE_LINE0,TLE_LINE1,TLE_LINE2,SEMIMAJOR_AXIS,PERIOD,APOGEE,PERIGEE,DECAYED
49436.0,STARLINK-3049,PAYLOAD,2023-11-25 09:58:11,15.08863138,0.0001554,53.2191,358.809,86.2967,273.8203,0.00029524,4.417e-05,0.0,0 STARLINK-3049,1 49436U 21104AE  23329.41540631  .00004417  00000-0  29524-3 0  9998,2 49436  53.2191 358.8090 0001554  86.2967 273.8203 15.08863138112816,6917.81,95.436,540.75,538.6,0.0
49436.0,STARLINK-3049,PAYLOAD,2023-11-26 01:52:03,15.08851654,0.0001617,53.2189,355.8417,84.5628,275.5549,0.00021781,3.181e-05,0.0,0 STARLINK-3049,1 49436U 21104AE  23330.07781550  .00003181  00000-0  21781-3 0  9993,2 49436  53.2189 355.8417 0001617  84.5628 275.5549 15.08851654113989,6917.845,95.437,540.828,538.591,0.0
49436.0,STARLINK-3049,PAYLOAD,2023-11-26 08:13:35,15.08856156,0.0001808,53.2179,354.6525,82.1023,278.0174,0.00029091,4.347e-05,0.0,0 STARLINK-3049,1 49436U 21104AE  23330.34277529  .00004347  00000-0  29091-3 0  9996,2 49436  53.2179 354.6525 0001808  82.1023 278.0174 15.08856156112950,6917.831,95.437,540.947,538.445,0.0
49436.0,STARLINK-3049,PAYLOAD,2023-11-27 01:42:51,15.08829038,0.0002132,53.2192,351.3753,114.9498,245.1716,-0.00036272,-6.055e-05,0.0,0 STARLINK-3049,1 49436U 21104AE  23331.07143259 -.00006055  00000-0 -36272-3 0  9998,2 49436  53.2192 351.3753 0002132 114.9498 245.1716 15.08829038114131,6917.914,95.438,541.254,538.304,0.0
49436.0,STARLINK-3049,PAYLOAD,2023-11-27 08:04:24,15.08818095,0.0001938,53.2188,350.1829,132.8699,227.2457,-0.00043923,-7.268e-05,0.0,0 STARLINK-3049,1 49436U 21104AE  23331.33639755 -.00007268  00000-0 -43923-3 0  9996,2 49436  53.2188 350.1829 0001938 132.8699 227.2457 15.08818095113102,6917.947,95.439,541.153,538.472,0.0
49436.0,STARLINK-3049,PAYLOAD,2023-11-28 11:05:55,15.08865053,0.0002167,53.2192,345.1316,116.4244,243.697,0.00013144,1.806e-05,0.0,0 STARLINK-3049,1 49436U 21104AE  23332.46244993  .00001806  00000-0  13144-3 0  9999,2 49436  53.2192 345.1316 0002167 116.4244 243.6970 15.08865053114346,6917.804,95.436,541.168,538.17,0.0
49436.0,STARLINK-3049,PAYLOAD,2023-11-29 10:56:44,15.08836693,0.0001899,53.219,340.6692,105.892,254.2282,0.00034911,5.272e-05,0.0,0 STARLINK-3049,1 49436U 21104AE  23333.45607293  .00005272  00000-0  34911-3 0  9991,2 49436  53.2190 340.6692 0001899 105.8920 254.2282 15.08836693114493,6917.89,95.438,541.069,538.442,0.0
49436.0,STARLINK-3049,PAYLOAD,2023-12-01 05:52:09,15.08845767,0.0002368,53.2179,332.6441,129.5585,230.5617,3.1055e-05,2.06e-06,0.0,0 STARLINK-3049,1 49436U 21104AE  23335.24454989  .00000206  00000-0  31055-4 0  9991,2 49436  53.2179 332.6441 0002368 129.5585 230.5617 15.08845767114766,6917.863,95.437,541.366,538.09,0.0
49436.0,STARLINK-3049,PAYLOAD,2023-12-01 07:27:32,15.08843629,0.0001879,53.2179,332.3469,102.0055,258.1148,3.0446e-05,1.96e-06,0.0,0 STARLINK-3049,1 49436U 21104AE  23335.31079343  .00000196  00000-0  30446-4 0  9997,2 49436  53.2179 332.3469 0001879 102.0055 258.1148 15.08843629113700,6917.869,95.437,541.034,538.434,0.0
49436.0,STARLINK-3049,PAYLOAD,2023-12-02 07:18:17,15.08868194,0.0002013,53.2184,327.8897,120.4771,239.642,0.00047802,7.334e-05,0.0,0 STARLINK-3049,1 49436U 21104AE  23336.30437267  .00007334  00000-0  47802-3 0  9994,2 49436  53.2184 327.8897 0002013 120.4771 239.6420 15.08868194114926,6917.794,95.436,541.052,538.267,0.0
49436.0,STARLINK-3049,PAYLOAD,2023-12-03 03:58:20,15.08822126,0.0002308,53.2188,324.0229,145.7996,214.3145,0.00056383,8.692e-05,0.0,0 STARLINK-3049,1 49436U 21104AE  23337.16550984  .00008692  00000-0  56383-3 0  9993,2 49436  53.2188 324.0229 0002308 145.7996 214.3145 15.08822126115058,6917.935,95.439,541.397,538.203,0.0
49436.0,STARLINK-3049,PAYLOAD,2023-12-04 03:49:06,15.08843058,0.0001982,53.2188,319.5651,84.0692,276.0526,-0.00048234,-7.957e-05,0.0,0 STARLINK-3049,1 49436U 21104AE  23338.15910729 -.00007957  00000-0 -48234-3 0  9991,2 49436  53.2188 319.5651 0001982  84.0692 276.0526 15.08843058115203,6917.871,95.437,541.107,538.365,0.0
49436.0,STARLINK-3049,PAYLOAD,2023-12-04 08:35:16,15.08846634,0.0002029,53.2192,318.668,101.2737,258.8484,-0.00030956,-5.213e-05,0.0,0 STARLINK-3049,1 49436U 21104AE  23338.35782519 -.00005213  00000-0 -30956-3 0  9992,2 49436  53.2192 318.6680 0002029 101.2737 258.8484 15.08846634114163,6917.86,95.437,541.129,538.321,0.0
49436.0,STARLINK-3049,PAYLOAD,2023-12-05 08:26:03,15.08839228,0.0001866,53.2188,314.2086,86.0626,274.058,0.00026605,3.949e-05,0.0,0 STARLINK-3049,1 49436U 21104AE  23339.35142843  .00003949  00000-0  26605-3 0  9991,2 49436  53.2188 314.2086 0001866  86.0626 274.0580 15.08839228115388,6917.883,95.438,541.039,538.457,0.0
49436.0,STARLINK-3049,PAYLOAD,2023-12-05 22:44:32,15.08831654,0.0001893,53.2196,311.5323,91.9484,268.1725,9.4797e-05,1.221e-05,0.0,0 STARLINK-3049,1 49436U 21104AE  23339.94760039  .00001221  00000-0  94797-4 0  9998,2 49436  53.2196 311.5323 0001893  91.9484 268.1725 15.08831654114400,6917.906,95.438,541.08,538.461,0.0
49436.0,STARLINK-3049,PAYLOAD,2023-12-06 03:30:41,15.08837966,0.0001975,53.2186,310.639,88.5049,271.6169,0.00012641,1.724e-05,0.0,0 STARLINK-3049,1 49436U 21104AE  23340.14631682  .00001724  00000-0  12641-3 0  9998,2 49436  53.2186 310.6390 0001975  88.5049 271.6169 15.08837966115508,6917.887,95.438,541.118,538.385,0.0
49436.0,STARLINK-3049,PAYLOAD,2023-12-06 08:16:51,15.08839417,0.0002013,53.2188,309.7473,93.1698,266.9525,0.00013562,1.871e-05,0.0,0 STARLINK-3049,1 49436U 21104AE  23340.34503571  .00001871  00000-0  13562-3 0  9991,2 49436  53.2188 309.7473 0002013  93.1698 266.9525 15.08839417114467,6917.882,95.438,541.14,538.355,0.0
49436.0,STARLINK-3049,PAYLOAD,2023-12-06 22:35:19,15.08837875,0.0002971,53.2179,307.0673,99.3072,260.8256,6.0359e-05,6.72e-06,0.0,0 STARLINK-3049,1 49436U 21104AE  23340.94120165  .00000672  00000-0  60359-4 0  9996,2 49436  53.2179 307.0673 0002971  99.3072 260.8256 15.08837875114557,6917.887,95.438,541.807,537.697,0.0
49436.0,STARLINK-3049,PAYLOAD,2023-12-07 03:21:29,15.08835951,0.0002417,53.219,306.1759,116.634,243.49,-3.9857e-05,-9.23e-06,0.0,0 STARLINK-3049,1 49436U 21104AE  23341.13992409 -.00000923  00000-0 -39857-4 0  9996,2 49436  53.2190 306.1759 0002417 116.6340 243.4900 15.08835951115659,6917.893,95.438,541.43,538.086,0.0
49436.0,STARLINK-3049,PAYLOAD,2023-12-08 07:58:25,15.08840542,0.0001964,53.2186,300.8277,95.0418,265.0799,0.00010249,1.343e-05,0.0,0 STARLINK-3049,1 49436U 21104AE  23342.33224428  .00001343  00000-0  10249-3 0  9996,2 49436  53.2186 300.8277 0001964  95.0418 265.0799 15.08840542115830,6917.879,95.438,541.102,538.385,0.0
49436.0,STARLINK-3049,PAYLOAD,2023-12-09 06:13:49,15.08849296,0.0001934,53.2176,296.6629,89.6129,270.5084,0.00026378,3.913e-05,0.0,0 STARLINK-3049,1 49436U 21104AE  23343.25960055  .00003913  00000-0  26378-3 0  9996,2 49436  53.2176 296.6629 0001934  89.6129 270.5084 15.08849296114907,6917.852,95.437,541.055,538.379,0.0
49436.0,STARLINK-3049,PAYLOAD,2023-12-10 06:04:36,15.08840585,0.0001882,53.2176,292.2023,118.1618,241.9565,4.047e-06,-2.24e-06,0.0,0 STARLINK-3049,1 49436U 21104AE  23344.25320315 -.00000224  00000-0  40470-5 0  9990,2 49436  53.2176 292.2023 0001882 118.1618 241.9565 15.08840585116124,6917.879,95.438,541.046,538.442,0.0
49436.0,STARLINK-3049,PAYLOAD,2023-12-11 02:44:37,15.08841066,0.0001958,53.2174,288.3369,88.5064,271.6152,3.7495e-06,-2.29e-06,0.0,0 STARLINK-3049,1 49436U 21104AE  23345.11432671 -.00000229  00000-0  37495-5 0  9993,2 49436  53.2174 288.3369 0001958  88.5064 271.6152 15.08841066115182,6917.877,95.437,541.097,538.388,0.0
49436.0,STARLINK-3049,PAYLOAD,2023-12-12 02:35:24,15.08854062,0.0001997,53.2183,283.876,89.0026,271.1195,0.00033457,5.043e-05,0.0,0 STARLINK-3049,1 49436U 21104AE  23346.10791821  .00005043  00000-0  33457-3 0  9998,2 49436  53.2183 283.8760 0001997  89.0026 271.1195 15.08854062116402,6917.837,95.437,541.084,538.321,0.0
49436.0,STARLINK-3049,PAYLOAD,2023-12-13 02:26:11,15.08843664,0.0001763,53.2179,279.4115,107.3361,252.7824,2.3503e-05,8.6e-07,0.0,0 STARLINK-3049,1 49436U 21104AE  23347.10152091  .00000086  00000-0  23503-4 0  9993,2 49436  53.2179 279.4115 0001763 107.3361 252.7824 15.08843664116555,6917.869,95.437,540.954,538.515,0.0
49436.0,STARLINK-3049,PAYLOAD,2023-12-14 02:16:58,15.08843969,0.0001823,53.2178,274.9565,105.8477,254.2716,-6.2403e-05,-1.281e-05,0.0,0 STARLINK-3049,1 49436U 21104AE  23348.09512123 -.00001281  00000-0 -62403-4 0  9990,2 49436  53.2178 274.9565 0001823 105.8477 254.2716 15.08843969115634,6917.868,95.437,540.994,538.472,0.0
49436.0,STARLINK-3049,PAYLOAD,2023-12-15 00:32:22,15.08842938,0.0001774,53.2172,270.7976,104.941,255.1779,0.00018175,2.606e-05,0.0,0 STARLINK-3049,1 49436U 21104AE  23349.02248276  .00002606  00000-0  18175-3 0  9995,2 49436  53.2172 270.7976 0001774 104.9410 255.1779 15.08842938116848,6917.871,95.437,540.964,538.509,0.0
49436.0,STARLINK-3049,PAYLOAD,2023-12-15 22:47:47,15.08834654,0.0002019,53.2184,266.6379,123.1075,237.0111,-2.0023e-05,-6.07e-06,0.0,0 STARLINK-3049,1 49436U 21104AE  23349.94984955 -.00000607  00000-0 -20023-4 0  9994,2 49436  53.2184 266.6379 0002019 123.1075 237.0111 15.08834654115917,6917.897,95.438,541.158,538.365,0.0
49436.0,STARLINK-3049,PAYLOAD,2023-12-16 01:58:33,15.08832472,0.0001444,53.217,266.0376,90.4534,269.6623,-8.5476e-05,-1.648e-05,0.0,0 STARLINK-3049,1 49436U 21104AE  23350.08233160 -.00001648  00000-0 -85476-4 0  9995,2 49436  53.2170 266.0376 0001444  90.4534 269.6623 15.08832472117007,6917.903,95.438,540.767,538.769,0.0
49436.0,STARLINK-3049,PAYLOAD,2023-12-16 22:38:33,15.08849356,0.0001222,53.2156,262.1709,108.2836,251.8289,-0.00011675,-2.146e-05,0.0,0 STARLINK-3049,1 49436U 21104AE  23350.94344477 -.00002146  00000-0 -11675-3 0  9997,2 49436  53.2156 262.1709 0001222 108.2836 251.8289 15.08849356116060,6917.852,95.437,540.562,538.871,0.0
